KUIPER-00061            
1 64521U 25134X   25291.33336806  .00029316  00000+0  38824-2 0  9991
2 64521  51.9002 137.5756 0006086 160.5472 110.5157 14.79654903  4996
KUIPER-00062            
1 64522U 25134Y   25291.02199902  .00006899  00000+0  83372-3 0  9992
2 64522  51.8959 145.8642 0007735 180.9161 179.1791 14.84659392 18922
KUIPER-00063            
1 64523U 25134Z   25291.26524096  .00004853  00000+0  66717-3 0  9997
2 64523  51.9004 147.8038 0004354 117.1103 243.0304 14.79808575 18911
KUIPER-00064            
1 64524U 25134AA  25291.25239843  .00005594  00000+0  77170-3 0  9998
2 64524  51.9007 145.1135 0005436 235.5455 124.4994 14.79403443 18957
KUIPER-00065            
1 64525U 25134AB  25291.02359688  .00006979  00000+0  94301-3 0  9997
2 64525  51.9006 151.0705 0011268 168.8185 191.3030 14.79930724 18832
KUIPER-00066            
1 64526U 25134AC  25291.19567641  .00021101  00000+0  10265-2 0  9996
2 64526  51.8882 135.9526 0004551 181.5797 178.5168 15.18343290 19070
KUIPER-00069            
1 64816U 25151A   25291.25003472 -.01293159  00000+0 -67567-1 0  9994
2 64816  51.8802 195.1570 0008808 143.9242 217.5838 15.18559646  5579
KUIPER-00070            
1 64817U 25151B   25291.09776353  .00009138  00000+0  12239-2 0  9998
2 64817  51.8988 216.1060 0010075 136.0400 224.1366 14.79981832 15305
